TOMORROW-S1             
1 60479U 24149M   26068.72470524  .00008620  00000+0  28856-3 0  9996
2 60479  97.3791 149.6044 0001819 207.2040 152.9106 15.31198362 86867
STARLINK-35912          
1 66882U 25283E   26068.25657913  .00033351  00000+0  11334-2 0  9998
2 66882  53.1609  26.4811 0000782  92.2957 267.8133 15.30191279 15777
